{
  "norad_id": 68749,
  "name": "STARLINK-37324",
  "history": [
    {
      "epoch": "2026-04-23T09:56:39.406272Z",
      "apogee_km": 316.33084418575163,
      "perigee_km": 310.9526616020503,
      "latitude_deg": 1.4504239995084546e-05,
      "longitude_deg": -25.07161284341044,
      "height_km": 319.51406140703637,
      "semi_major_axis_km": 6691.778752893901,
      "eccentricity": 0.00040185,
      "inclination_deg": 97.2875,
      "raan_deg": 335.5545,
      "arg_perigee_deg": 179.7231,
      "mean_anomaly_deg": 180.4043,
      "mean_motion_rev_day": 15.85953324
    },
    {
      "epoch": "2026-04-25T20:00:01.000224Z",
      "apogee_km": 329.0556839558267,
      "perigee_km": 327.3723898455646,
      "latitude_deg": 81.06796618847697,
      "longitude_deg": 130.29323800737296,
      "height_km": 340.83177325760386,
      "semi_major_axis_km": 6706.351036900695,
      "eccentricity": 0.0001255,
      "inclination_deg": 97.2846,
      "raan_deg": 338.1179,
      "arg_perigee_deg": 92.3855,
      "mean_anomaly_deg": 352.3546,
      "mean_motion_rev_day": 15.80786937
    },
    {
      "epoch": "2026-04-26T00:00:02.999808Z",
      "apogee_km": 329.06226137774047,
      "perigee_km": 327.469356582551,
      "latitude_deg": -47.06972004474607,
      "longitude_deg": 132.12383817332687,
      "height_km": 347.24381371275973,
      "semi_major_axis_km": 6706.402808980145,
      "eccentricity": 0.00011876,
      "inclination_deg": 97.2843,
      "raan_deg": 338.2935,
      "arg_perigee_deg": 99.1684,
      "mean_anomaly_deg": 213.5432,
      "mean_motion_rev_day": 15.80768632
    },
    {
      "epoch": "2026-04-27T20:00:03.000384Z",
      "apogee_km": 329.1962170492916,
      "perigee_km": 327.16956717789526,
      "latitude_deg": -60.35772292883955,
      "longitude_deg": -162.68918232558502,
      "height_km": 352.5140002583647,
      "semi_major_axis_km": 6706.319892113593,
      "eccentricity": 0.0001511,
      "inclination_deg": 97.2843,
      "raan_deg": 340.2341,
      "arg_perigee_deg": 112.3833,
      "mean_anomaly_deg": 186.6597,
      "mean_motion_rev_day": 15.80797949
    },
    {
      "epoch": "2026-04-28T20:00:01.000224Z",
      "apogee_km": 328.9388107123168,
      "perigee_km": 327.3105303787079,
      "latitude_deg": -45.79662228297348,
      "longitude_deg": -3.0251154790680332,
      "height_km": 346.45916504601496,
      "semi_major_axis_km": 6706.261670545512,
      "eccentricity": 0.0001214,
      "inclination_deg": 97.2846,
      "raan_deg": 341.292,
      "arg_perigee_deg": 94.6925,
      "mean_anomaly_deg": 131.2954,
      "mean_motion_rev_day": 15.80818535
    },
    {
      "epoch": "2026-04-29T19:21:17.271360Z",
      "apogee_km": 328.5748776842602,
      "perigee_km": 327.29535912406845,
      "latitude_deg": -1.626955582945304e-05,
      "longitude_deg": -165.76362594432422,
      "height_km": 331.0591089893951,
      "semi_major_axis_km": 6706.072118404164,
      "eccentricity": 9.54e-05,
      "inclination_deg": 97.284,
      "raan_deg": 342.3206,
      "arg_perigee_deg": 85.4736,
      "mean_anomaly_deg": 274.6641,
      "mean_motion_rev_day": 15.8088556
    },
    {
      "epoch": "2026-04-30T13:35:07.748160Z",
      "apogee_km": 328.6280633952465,
      "perigee_km": 327.0442466554923,
      "latitude_deg": -5.221363484560418e-05,
      "longitude_deg": -79.16894934471838,
      "height_km": 330.9986849863242,
      "semi_major_axis_km": 6705.973155025369,
      "eccentricity": 0.00011809,
      "inclination_deg": 97.2828,
      "raan_deg": 343.1243,
      "arg_perigee_deg": 89.1555,
      "mean_anomaly_deg": 270.9848,
      "mean_motion_rev_day": 15.80920555
    },
    {
      "epoch": "2026-05-02T09:38:36.249216Z",
      "apogee_km": 328.78248227697986,
      "perigee_km": 327.1301008899336,
      "latitude_deg": -1.9964423449248407e-05,
      "longitude_deg": -19.905004641775783,
      "height_km": 331.09062789369295,
      "semi_major_axis_km": 6706.093291583456,
      "eccentricity": 0.0001232,
      "inclination_deg": 97.2826,
      "raan_deg": 345.0664,
      "arg_perigee_deg": 87.2443,
      "mean_anomaly_deg": 272.8966,
      "mean_motion_rev_day": 15.80878073
    },
    {
      "epoch": "2026-05-03T19:03:58.328640Z",
      "apogee_km": 328.4964218700643,
      "perigee_km": 327.26922024281157,
      "latitude_deg": -5.052303352899665e-06,
      "longitude_deg": -161.1474334746075,
      "height_km": 330.89031406248733,
      "semi_major_axis_km": 6706.019821056438,
      "eccentricity": 9.15e-05,
      "inclination_deg": 97.2831,
      "raan_deg": 346.5386,
      "arg_perigee_deg": 74.1951,
      "mean_anomaly_deg": 285.9418,
      "mean_motion_rev_day": 15.80904053
    },
    {
      "epoch": "2026-05-04T19:22:26.317056Z",
      "apogee_km": 328.87154743201427,
      "perigee_km": 326.91338682761307,
      "latitude_deg": -5.598212535369369e-05,
      "longitude_deg": -165.69133373457396,
      "height_km": 331.1721904939872,
      "semi_major_axis_km": 6706.029467129813,
      "eccentricity": 0.000146,
      "inclination_deg": 97.2828,
      "raan_deg": 347.6096,
      "arg_perigee_deg": 96.2135,
      "mean_anomaly_deg": 263.9299,
      "mean_motion_rev_day": 15.80900642
    },
    {
      "epoch": "2026-05-05T19:40:53.465664Z",
      "apogee_km": 328.44891172529424,
      "perigee_km": 327.6307581514311,
      "latitude_deg": -2.0278391888835332e-05,
      "longitude_deg": -170.23173657095816,
      "height_km": 331.3098343274826,
      "semi_major_axis_km": 6706.176834938362,
      "eccentricity": 6.1e-05,
      "inclination_deg": 97.2821,
      "raan_deg": 348.6806,
      "arg_perigee_deg": 103.4159,
      "mean_anomaly_deg": 256.7177,
      "mean_motion_rev_day": 15.80848532
    },
    {
      "epoch": "2026-05-06T18:28:12.869760Z",
      "apogee_km": 328.6490427035569,
      "perigee_km": 327.1375034800012,
      "latitude_deg": -6.715235151411229e-05,
      "longitude_deg": -151.9941842568154,
      "height_km": 331.36991259511404,
      "semi_major_axis_km": 6706.030273091778,
      "eccentricity": 0.0001127,
      "inclination_deg": 97.2822,
      "raan_deg": 349.6849,
      "arg_perigee_deg": 113.5636,
      "mean_anomaly_deg": 246.575,
      "mean_motion_rev_day": 15.80900357
    },
    {
      "epoch": "2026-05-07T20:00:01.999008Z",
      "apogee_km": 342.27013560635896,
      "perigee_km": 339.83778847810026,
      "latitude_deg": -76.31400699492042,
      "longitude_deg": -143.4095234882327,
      "height_km": 369.79689109553317,
      "semi_major_axis_km": 6719.190962042229,
      "eccentricity": 0.000181,
      "inclination_deg": 97.2845,
      "raan_deg": 350.807,
      "arg_perigee_deg": 96.4158,
      "mean_anomaly_deg": 185.3283,
      "mean_motion_rev_day": 15.76257935
    },
    {
      "epoch": "2026-05-08T20:00:01.999008Z",
      "apogee_km": 345.0255652552223,
      "perigee_km": 342.9914440255179,
      "latitude_deg": -9.33878656635825,
      "longitude_deg": 3.990696806979962,
      "height_km": 348.9820039625126,
      "semi_major_axis_km": 6722.14550464037,
      "eccentricity": 0.0001513,
      "inclination_deg": 97.2851,
      "raan_deg": 351.8565,
      "arg_perigee_deg": 92.1739,
      "mean_anomaly_deg": 97.0387,
      "mean_motion_rev_day": 15.75218845
    },
    {
      "epoch": "2026-05-09T20:00:04.000032Z",
      "apogee_km": 345.04121134473553,
      "perigee_km": 343.0030526959072,
      "latitude_deg": 80.52753067918381,
      "longitude_deg": 54.87108499794204,
      "height_km": 356.4121597548798,
      "semi_major_axis_km": 6722.1591320203215,
      "eccentricity": 0.0001516,
      "inclination_deg": 97.2846,
      "raan_deg": 352.9063,
      "arg_perigee_deg": 95.5543,
      "mean_anomaly_deg": 0.5912,
      "mean_motion_rev_day": 15.75214055
    },
    {
      "epoch": "2026-05-10T20:00:01.999008Z",
      "apogee_km": 344.67772460779906,
      "perigee_km": 343.04696756643807,
      "latitude_deg": 2.6967227534172586,
      "longitude_deg": -175.02738377591865,
      "height_km": 346.69787886753187,
      "semi_major_axis_km": 6721.999346087118,
      "eccentricity": 0.0001213,
      "inclination_deg": 97.2848,
      "raan_deg": 353.9549,
      "arg_perigee_deg": 91.2257,
      "mean_anomaly_deg": 271.6154,
      "mean_motion_rev_day": 15.75270221
    },
    {
      "epoch": "2026-05-11T12:45:37.035360Z",
      "apogee_km": 344.8115785223681,
      "perigee_km": 343.06383909807755,
      "latitude_deg": 1.540318318262761e-05,
      "longitude_deg": -66.03652034805216,
      "height_km": 347.3569815554296,
      "semi_major_axis_km": 6722.074708810223,
      "eccentricity": 0.00013,
      "inclination_deg": 97.2846,
      "raan_deg": 354.687,
      "arg_perigee_deg": 106.8149,
      "mean_anomaly_deg": 253.3259,
      "mean_motion_rev_day": 15.7524373
    },
    {
      "epoch": "2026-05-12T20:46:41.604384Z",
      "apogee_km": 345.56264445013494,
      "perigee_km": 341.8898183804886,
      "latitude_deg": 1.0975383009640899e-05,
      "longitude_deg": 173.7788131038674,
      "height_km": 347.4800031867472,
      "semi_major_axis_km": 6721.863231415311,
      "eccentricity": 0.0002732,
      "inclination_deg": 97.2847,
      "raan_deg": 356.0863,
      "arg_perigee_deg": 108.7223,
      "mean_anomaly_deg": 251.4339,
      "mean_motion_rev_day": 15.75318069
    },
    {
      "epoch": "2026-05-13T13:32:58.284672Z",
      "apogee_km": 344.5476346127107,
      "perigee_km": 343.4089082857272,
      "latitude_deg": 8.036098107079956e-05,
      "longitude_deg": -77.74496929930757,
      "height_km": 347.00513498853405,
      "semi_major_axis_km": 6722.115271449219,
      "eccentricity": 8.47e-05,
      "inclination_deg": 97.2868,
      "raan_deg": 356.8208,
      "arg_perigee_deg": 75.7532,
      "mean_anomaly_deg": 284.3828,
      "mean_motion_rev_day": 15.75229472
    }
  ]
}